{
  "type": "FeatureCollection",
  "features": [
    {
      "type": "Feature",
      "properties": {
        "norad_id": 30709,
        "name": "FENGYUN 1C DEB",
        "group": "fengyun-1c-debris",
        "lat": -76.92640821594249,
        "lon": 115.33194440984298,
        "alt_km": 790.1915108643516,
        "timestamp": "2025-12-26T21:25:53.288561+00:00",
        "meta_object_name": "FENGYUN 1C DEB",
        "meta_object_id": "1999-025ART",
        "meta_epoch": "2025-12-25T22:11:00.306240",
        "meta_mean_motion": 14.17603321,
        "meta_eccentricity": 0.0081471,
        "meta_inclination": 99.1461,
        "meta_ra_of_asc_node": 338.2622,
        "meta_arg_of_pericenter": 232.4356,
        "meta_mean_anomaly": 126.9398,
        "meta_ephemeris_type": 0,
        "meta_classification_type": "U",
        "meta_norad_cat_id": 30709,
        "meta_element_set_no": 999,
        "meta_rev_at_epoch": 96183,
        "meta_bstar": 0.002283,
        "meta_mean_motion_dot": 4.75e-05,
        "meta_mean_motion_ddot": 0,
        "tle_line1": "1 30709U 99025ART 25359.92430910  .00004750  00000+0  22830-2 0  9998",
        "tle_line2": "2 30709  99.1461 338.2622 0081471 232.4356 126.9398 14.17603321961836"
      },
      "geometry": {
        "type": "Point",
        "coordinates": [
          115.33194440984298,
          -76.92640821594249
        ]
      }
    },
    {
      "type": "Feature",
      "properties": {
        "norad_id": 30710,
        "name": "FENGYUN 1C DEB",
        "group": "fengyun-1c-debris",
        "lat": 30.40254014643576,
        "lon": -112.21363051329166,
        "alt_km": 755.5547719360156,
        "timestamp": "2025-12-26T21:25:53.288571+00:00",
        "meta_object_name": "FENGYUN 1C DEB",
        "meta_object_id": "1999-025ARU",
        "meta_epoch": "2025-12-26T13:14:02.270688",
        "meta_mean_motion": 13.94263604,
        "meta_eccentricity": 0.02253623,
        "meta_inclination": 102.7465,
        "meta_ra_of_asc_node": 254.9488,
        "meta_arg_of_pericenter": 50.5449,
        "meta_mean_anomaly": 67.9904,
        "meta_ephemeris_type": 0,
        "meta_classification_type": "U",
        "meta_norad_cat_id": 30710,
        "meta_element_set_no": 999,
        "meta_rev_at_epoch": 94981,
        "meta_bstar": 0.0028567641,
        "meta_mean_motion_dot": 4.617e-05,
        "meta_mean_motion_ddot": 0,
        "tle_line1": "1 30710U 99025ARU 25360.55141517  .00004617  00000+0  28568-2 0  9999",
        "tle_line2": "2 30710 102.7465 254.9488 0225362  50.5449  67.9904 13.94263604949819"
      },
      "geometry": {
        "type": "Point",
        "coordinates": [
          -112.21363051329166,
          30.40254014643576
        ]
      }
    },
    {
      "type": "Feature",
      "properties": {
        "norad_id": 30714,
        "name": "FENGYUN 1C DEB",
        "group": "fengyun-1c-debris",
        "lat": 63.52129815626174,
        "lon": -112.79762459284126,
        "alt_km": 905.64340567203,
        "timestamp": "2025-12-26T21:25:53.288582+00:00",
        "meta_object_name": "FENGYUN 1C DEB",
        "meta_object_id": "1999-025ARY",
        "meta_epoch": "2025-12-26T02:19:15.865824",
        "meta_mean_motion": 14.03308161,
        "meta_eccentricity": 0.00671765,
        "meta_inclination": 98.8343,
        "meta_ra_of_asc_node": 48.2366,
        "meta_arg_of_pericenter": 244.7825,
        "meta_mean_anomaly": 170.4011,
        "meta_ephemeris_type": 0,
        "meta_classification_type": "U",
        "meta_norad_cat_id": 30714,
        "meta_element_set_no": 999,
        "meta_rev_at_epoch": 96180,
        "meta_bstar": 0.00042230527,
        "meta_mean_motion_dot": 6.29e-06,
        "meta_mean_motion_ddot": 0,
        "tle_line1": "1 30714U 99025ARY 25360.09671141  .00000629  00000+0  42231-3 0  9996",
        "tle_line2": "2 30714  98.8343  48.2366 0067176 244.7825 170.4011 14.03308161961805"
      },
      "geometry": {
        "type": "Point",
        "coordinates": [
          -112.79762459284126,
          63.52129815626174
        ]
      }
    },
    {
      "type": "Feature",
      "properties": {
        "norad_id": 30715,
        "name": "FENGYUN 1C DEB",
        "group": "fengyun-1c-debris",
        "lat": -22.017313850015736,
        "lon": -113.53161209369817,
        "alt_km": 833.9696417235436,
        "timestamp": "2025-12-26T21:25:53.288592+00:00",
        "meta_object_name": "FENGYUN 1C DEB",
        "meta_object_id": "1999-025ARZ",
        "meta_epoch": "2025-12-26T03:30:42.568992",
        "meta_mean_motion": 14.14784311,
        "meta_eccentricity": 0.00672111,
        "meta_inclination": 98.9752,
        "meta_ra_of_asc_node": 69.382,
        "meta_arg_of_pericenter": 131.1148,
        "meta_mean_anomaly": 229.5854,
        "meta_ephemeris_type": 0,
        "meta_classification_type": "U",
        "meta_norad_cat_id": 30715,
        "meta_element_set_no": 999,
        "meta_rev_at_epoch": 96371,
        "meta_bstar": 0.0017245797,
        "meta_mean_motion_dot": 3.354e-05,
        "meta_mean_motion_ddot": 0,
        "tle_line1": "1 30715U 99025ARZ 25360.14632603  .00003354  00000+0  17246-2 0  9998",
        "tle_line2": "2 30715  98.9752  69.3820 0067211 131.1148 229.5854 14.14784311963717"
      },
      "geometry": {
        "type": "Point",
        "coordinates": [
          -113.53161209369817,
          -22.017313850015736
        ]
      }
    },
    {
      "type": "Feature",
      "properties": {
        "norad_id": 30716,
        "name": "FENGYUN 1C DEB",
        "group": "fengyun-1c-debris",
        "lat": 78.06907604986282,
        "lon": 137.75222330348726,
        "alt_km": 611.0441558150178,
        "timestamp": "2025-12-26T21:25:53.288602+00:00",
        "meta_object_name": "FENGYUN 1C DEB",
        "meta_object_id": "1999-025ASA",
        "meta_epoch": "2025-12-26T11:37:35.280768",
        "meta_mean_motion": 14.80105526,
        "meta_eccentricity": 0.00212572,
        "meta_inclination": 98.8725,
        "meta_ra_of_asc_node": 184.972,
        "meta_arg_of_pericenter": 38.2737,
        "meta_mean_anomaly": 27.9747,
        "meta_ephemeris_type": 0,
        "meta_classification_type": "U",
        "meta_norad_cat_id": 30716,
        "meta_element_set_no": 999,
        "meta_rev_at_epoch": 98027,
        "meta_bstar": 0.0036595758,
        "meta_mean_motion_dot": 0.00027903,
        "meta_mean_motion_ddot": 0,
        "tle_line1": "1 30716U 99025ASA 25360.48443612  .00027903  00000+0  36596-2 0  9991",
        "tle_line2": "2 30716  98.8725 184.9720 0021257  38.2737  27.9747 14.80105526980270"
      },
      "geometry": {
        "type": "Point",
        "coordinates": [
          137.75222330348726,
          78.06907604986282
        ]
      }
    },
    {
      "type": "Feature",
      "properties": {
        "norad_id": 30717,
        "name": "FENGYUN 1C DEB",
        "group": "fengyun-1c-debris",
        "lat": 30.29313388910336,
        "lon": -102.75234758924287,
        "alt_km": 808.4018328365355,
        "timestamp": "2025-12-26T21:25:53.288612+00:00",
        "meta_object_name": "FENGYUN 1C DEB",
        "meta_object_id": "1999-025ASB",
        "meta_epoch": "2025-12-24T04:29:37.157568",
        "meta_mean_motion": 14.20604613,
        "meta_eccentricity": 0.00491208,
        "meta_inclination": 99.0161,
        "meta_ra_of_asc_node": 69.1672,
        "meta_arg_of_pericenter": 225.2588,
        "meta_mean_anomaly": 134.4586,
        "meta_ephemeris_type": 0,
        "meta_classification_type": "U",
        "meta_norad_cat_id": 30717,
        "meta_element_set_no": 999,
        "meta_rev_at_epoch": 96699,
        "meta_bstar": 0.0014340874,
        "meta_mean_motion_dot": 3.078e-05,
        "meta_mean_motion_ddot": 0,
        "tle_line1": "1 30717U 99025ASB 25358.18723562  .00003078  00000+0  14341-2 0  9992",
        "tle_line2": "2 30717  99.0161  69.1672 0049120 225.2588 134.4586 14.20604613966992"
      },
      "geometry": {
        "type": "Point",
        "coordinates": [
          -102.75234758924287,
          30.29313388910336
        ]
      }
    },
    {
      "type": "Feature",
      "properties": {
        "norad_id": 30718,
        "name": "FENGYUN 1C DEB",
        "group": "fengyun-1c-debris",
        "lat": 52.40965780428048,
        "lon": 69.72952649669415,
        "alt_km": 786.621969740565,
        "timestamp": "2025-12-26T21:25:53.288623+00:00",
        "meta_object_name": "FENGYUN 1C DEB",
        "meta_object_id": "1999-025ASC",
        "meta_epoch": "2025-12-23T22:22:37.269120",
        "meta_mean_motion": 14.24423886,
        "meta_eccentricity": 0.0057063,
        "meta_inclination": 98.8901,
        "meta_ra_of_asc_node": 78.4653,
        "meta_arg_of_pericenter": 124.9351,
        "meta_mean_anomaly": 235.7206,
        "meta_ephemeris_type": 0,
        "meta_classification_type": "U",
        "meta_norad_cat_id": 30718,
        "meta_element_set_no": 999,
        "meta_rev_at_epoch": 96933,
        "meta_bstar": 0.0015071,
        "meta_mean_motion_dot": 3.504e-05,
        "meta_mean_motion_ddot": 0,
        "tle_line1": "1 30718U 99025ASC 25357.93237580  .00003504  00000+0  15071-2 0  9990",
        "tle_line2": "2 30718  98.8901  78.4653 0057063 124.9351 235.7206 14.24423886969332"
      },
      "geometry": {
        "type": "Point",
        "coordinates": [
          69.72952649669415,
          52.40965780428048
        ]
      }
    }
  ]
}